{"type": "FeatureCollection", "features": [ {"type": "Feature", "properties": {"norad_id": 43108, "name": "BEIDOU-3 M8 (C28)", "group": "beidou", "lat": 0.45687525537440987, "lon": 128.56597247066645, "alt_km": 21529.68670485866, "timestamp": "2025-12-09T11:33:55.064914+00:00", "meta": {"OBJECT_NAME": "BEIDOU-3 M8 (C28)", "OBJECT_ID": "2018-003B", "EPOCH": "2025-12-08T03:21:57.743424", "MEAN_MOTION": 1.86230794, "ECCENTRICITY": 0.00047249, "INCLINATION": 54.4937, "RA_OF_ASC_NODE": 308.9576, "ARG_OF_PERICENTER": 275.4662, "MEAN_ANOMALY": 84.4669, "EPHEMERIS_TYPE": 0, "CLASSIFICATION_TYPE": "U", "NORAD_CAT_ID": 43108, "ELEMENT_SET_NO": 999, "REV_AT_EPOCH": 5380, "BSTAR": 0, "MEAN_MOTION_DOT": -7.3e-07, "MEAN_MOTION_DDOT": 0}, "tle": {"line1": "1 43108U 18003B   25342.14025166 -.00000073  00000+0  00000+0 0  9998", "line2": "2 43108  54.4937 308.9576 0004724 275.4662  84.4669  1.86230794 53800"}}, "geometry": {"type": "Point", "coordinates": [128.56597247066645, 0.45687525537440987]}}, {"type": "Feature", "properties": {"norad_id": 43207, "name": "BEIDOU-3 M4 (C22)", "group": "beidou", "lat": -48.10462247828217, "lon": -63.04258680021996, "alt_km": 21540.848302919818, "timestamp": "2025-12-09T11:33:55.064925+00:00", "meta": {"OBJECT_NAME": "BEIDOU-3 M4 (C22)", "OBJECT_ID": "2018-018A", "EPOCH": "2025-12-06T10:25:28.940736", "MEAN_MOTION": 1.86230708, "ECCENTRICITY": 0.00041784, "INCLINATION": 56.4806, "RA_OF_ASC_NODE": 69.5126, "ARG_OF_PERICENTER": 11.9666, "MEAN_ANOMALY": 348.0575, "EPHEMERIS_TYPE": 0, "CLASSIFICATION_TYPE": "U", "NORAD_CAT_ID": 43207, "ELEMENT_SET_NO": 999, "REV_AT_EPOCH": 5315, "BSTAR": 0, "MEAN_MOTION_DOT": -4.5e-07, "MEAN_MOTION_DDOT": 0}, "tle": {"line1": "1 43207U 18018A   25340.43436274 -.00000045  00000+0  00000+0 0  9999", "line2": "2 43207  56.4806  69.5126 0004178  11.9666 348.0575  1.86230708 53156"}}, "geometry": {"type": "Point", "coordinates": [-63.04258680021996, -48.10462247828217]}}, {"type": "Feature", "properties": {"norad_id": 43208, "name": "BEIDOU-3 M3 (C21)", "group": "beidou", "lat": -15.367369744238582, "lon": -100.09492418842319, "alt_km": 21538.83087568331, "timestamp": "2025-12-09T11:33:55.064936+00:00", "meta": {"OBJECT_NAME": "BEIDOU-3 M3 (C21)", "OBJECT_ID": "2018-018B", "EPOCH": "2025-12-08T02:40:56.254080", "MEAN_MOTION": 1.86230991, "ECCENTRICITY": 0.0006453, "INCLINATION": 56.4817, "RA_OF_ASC_NODE": 69.4614, "ARG_OF_PERICENTER": 316.7872, "MEAN_ANOMALY": 43.1825, "EPHEMERIS_TYPE": 0, "CLASSIFICATION_TYPE": "U", "NORAD_CAT_ID": 43208, "ELEMENT_SET_NO": 999, "REV_AT_EPOCH": 5318, "BSTAR": 0, "MEAN_MOTION_DOT": -4.4e-07, "MEAN_MOTION_DDOT": 0}, "tle": {"line1": "1 43208U 18018B   25342.11176220 -.00000044  00000+0  00000+0 0  9998", "line2": "2 43208  56.4817  69.4614 0006453 316.7872  43.1825  1.86230991 53181"}}, "geometry": {"type": "Point", "coordinates": [-100.09492418842319, -15.367369744238582]}}, {"type": "Feature", "properties": {"norad_id": 43245, "name": "BEIDOU-3 M9 (C29)", "group": "beidou", "lat": 40.91949907802041, "lon": -15.031871641244962, "alt_km": 21526.929490005285, "timestamp": "2025-12-09T11:33:55.064948+00:00", "meta": {"OBJECT_NAME": "BEIDOU-3 M9 (C29)", "OBJECT_ID": "2018-029A", "EPOCH": "2025-12-08T20:45:22.665024", "MEAN_MOTION": 1.86227881, "ECCENTRICITY": 0.0001669, "INCLINATION": 54.3693, "RA_OF_ASC_NODE": 306.6022, "ARG_OF_PERICENTER": 274.1611, "MEAN_ANOMALY": 85.8087, "EPHEMERIS_TYPE": 0, "CLASSIFICATION_TYPE": "U", "NORAD_CAT_ID": 43245, "ELEMENT_SET_NO": 999, "REV_AT_EPOCH": 5235, "BSTAR": 0, "MEAN_MOTION_DOT": -7.4e-07, "MEAN_MOTION_DDOT": 0}, "tle": {"line1": "1 43245U 18029A   25342.86484566 -.00000074  00000+0  00000+0 0  9991", "line2": "2 43245  54.3693 306.6022 0001669 274.1611  85.8087  1.86227881 52357"}}, "geometry": {"type": "Point", "coordinates": [-15.031871641244962, 40.91949907802041]}}, {"type": "Feature", "properties": {"norad_id": 43246, "name": "BEIDOU-3 M10 (C30)", "group": "beidou", "lat": 53.75066739232691, "lon": 48.75522097768949, "alt_km": 21523.60008666679, "timestamp": "2025-12-09T11:33:55.064959+00:00", "meta": {"OBJECT_NAME": "BEIDOU-3 M10 (C30)", "OBJECT_ID": "2018-029B", "EPOCH": "2025-12-08T19:12:10.130400", "MEAN_MOTION": 1.86228761, "ECCENTRICITY": 0.0003941, "INCLINATION": 54.3671, "RA_OF_ASC_NODE": 306.6327, "ARG_OF_PERICENTER": 358.8178, "MEAN_ANOMALY": 1.1699, "EPHEMERIS_TYPE": 0, "CLASSIFICATION_TYPE": "U", "NORAD_CAT_ID": 43246, "ELEMENT_SET_NO": 999, "REV_AT_EPOCH": 5233, "BSTAR": 0, "MEAN_MOTION_DOT": -7.4e-07, "MEAN_MOTION_DDOT": 0}, "tle": {"line1": "1 43246U 18029B   25342.80011725 -.00000074  00000+0  00000+0 0  9999", "line2": "2 43246  54.3671 306.6327 0003941 358.8178   1.1699  1.86228761 52331"}}, "geometry": {"type": "Point", "coordinates": [48.75522097768949, 53.75066739232691]}}, {"type": "Feature", "properties": {"norad_id": 43539, "name": "BEIDOU-2 IGSO-7 (C16)", "group": "beidou", "lat": -14.473317910969449, "lon": -4.94229587929372, "alt_km": 35481.63410370439, "timestamp": "2025-12-09T11:33:55.064970+00:00", "meta": {"OBJECT_NAME": "BEIDOU-2 IGSO-7 (C16)", "OBJECT_ID": "2018-057A", "EPOCH": "2025-12-08T22:18:38.684160", "MEAN_MOTION": 1.00258196, "ECCENTRICITY": 0.0092592, "INCLINATION": 55.1737, "RA_OF_ASC_NODE": 164.7043, "ARG_OF_PERICENTER": 235.2335, "MEAN_ANOMALY": 123.7803, "EPHEMERIS_TYPE": 0, "CLASSIFICATION_TYPE": "U", "NORAD_CAT_ID": 43539, "ELEMENT_SET_NO": 999, "REV_AT_EPOCH": 2722, "BSTAR": 0, "MEAN_MOTION_DOT": -7e-07, "MEAN_MOTION_DDOT": 0}, "tle": {"line1": "1 43539U 18057A   25342.92961440 -.00000070  00000+0  00000+0 0  9992", "line2": "2 43539  55.1737 164.7043 0092592 235.2335 123.7803  1.00258196 27228"}}, "geometry": {"type": "Point", "coordinates": [-4.94229587929372, -14.473317910969449]}}, {"type": "Feature", "properties": {"norad_id": 43581, "name": "BEIDOU-3 M5 (C23)", "group": "beidou", "lat": -40.64892024510555, "lon": 150.27566328231126, "alt_km": 21529.015580152998, "timestamp": "2025-12-09T11:33:55.064982+00:00", "meta": {"OBJECT_NAME": "BEIDOU-3 M5 (C23)", "OBJECT_ID": "2018-062A", "EPOCH": "2025-12-07T09:56:06.099936", "MEAN_MOTION": 1.86228656, "ECCENTRICITY": 0.00021227, "INCLINATION": 54.0892, "RA_OF_ASC_NODE": 188.8244, "ARG_OF_PERICENTER": 353.0314, "MEAN_ANOMALY": 7.0363, "EPHEMERIS_TYPE": 0, "CLASSIFICATION_TYPE": "U", "NORAD_CAT_ID": 43581, "ELEMENT_SET_NO": 999, "REV_AT_EPOCH": 5006, "BSTAR": 0, "MEAN_MOTION_DOT": 5.9e-07, "MEAN_MOTION_DDOT": 0}, "tle": {"line1": "1 43581U 18062A   25341.41395949  .00000059  00000+0  00000+0 0  9999", "line2": "2 43581  54.0892 188.8244 0002122 353.0314   7.0363  1.86228656 50066"}}, "geometry": {"type": "Point", "coordinates": [150.27566328231126, -40.64892024510555]}}, {"type": "Feature", "properties": {"norad_id": 43582, "name": "BEIDOU-3 M6 (C24)", "group": "beidou", "lat": 30.11539183840019, "lon": -146.38861747470943, "alt_km": 21502.973112713116, "timestamp": "2025-12-09T11:33:55.064993+00:00", "meta": {"OBJECT_NAME": "BEIDOU-3 M6 (C24)", "OBJECT_ID": "2018-062B", "EPOCH": "2025-12-07T19:32:10.570272", "MEAN_MOTION": 1.86229692, "ECCENTRICITY": 0.00077761, "INCLINATION": 54.0886, "RA_OF_ASC_NODE": 188.7999, "ARG_OF_PERICENTER": 46.2812, "MEAN_ANOMALY": 313.8511, "EPHEMERIS_TYPE": 0, "CLASSIFICATION_TYPE": "U", "NORAD_CAT_ID": 43582, "ELEMENT_SET_NO": 999, "REV_AT_EPOCH": 5007, "BSTAR": 0, "MEAN_MOTION_DOT": 5.5e-07, "MEAN_MOTION_DDOT": 0}, "tle": {"line1": "1 43582U 18062B   25341.81401123  .00000055  00000+0  00000+0 0  9992", "line2": "2 43582  54.0886 188.7999 0007776  46.2812 313.8511  1.86229692 50075"}}, "geometry": {"type": "Point", "coordinates": [-146.38861747470943, 30.11539183840019]}}, {"type": "Feature", "properties": {"norad_id": 43602, "name": "BEIDOU-3 M12 (C26)", "group": "beidou", "lat": 52.993352703877655, "lon": -99.11881318238683, "alt_km": 21502.319364187064, "timestamp": "2025-12-09T11:33:55.065004+00:00", "meta": {"OBJECT_NAME": "BEIDOU-3 M12 (C26)", "OBJECT_ID": "2018-067A", "EPOCH": "2025-12-07T18:02:34.116000", "MEAN_MOTION": 1.86227677, "ECCENTRICITY": 0.00091651, "INCLINATION": 54.1832, "RA_OF_ASC_NODE": 187.5325, "ARG_OF_PERICENTER": 40.8071, "MEAN_ANOMALY": 319.3279, "EPHEMERIS_TYPE": 0, "CLASSIFICATION_TYPE": "U", "NORAD_CAT_ID": 43602, "ELEMENT_SET_NO": 999, "REV_AT_EPOCH": 4955, "BSTAR": 0, "MEAN_MOTION_DOT": 5.6e-07, "MEAN_MOTION_DDOT": 0}, "tle": {"line1": "1 43602U 18067A   25341.75178375  .00000056  00000+0  00000+0 0  9994", "line2": "2 43602  54.1832 187.5325 0009165  40.8071 319.3279  1.86227677 49555"}}, "geometry": {"type": "Point", "coordinates": [-99.11881318238683, 52.993352703877655]}}, {"type": "Feature", "properties": {"norad_id": 43603, "name": "BEIDOU-3 M11 (C25)", "group": "beidou", "lat": -8.285713050893328, "lon": -178.59488788219832, "alt_km": 21519.113657294787, "timestamp": "2025-12-09T11:33:55.065015+00:00", "meta": {"OBJECT_NAME": "BEIDOU-3 M11 (C25)", "OBJECT_ID": "2018-067B", "EPOCH": "2025-12-07T08:23:01.607424", "MEAN_MOTION": 1.86227152, "ECCENTRICITY": 0.0005581, "INCLINATION": 54.1802, "RA_OF_ASC_NODE": 187.5102, "ARG_OF_PERICENTER": 36.6822, "MEAN_ANOMALY": 323.425, "EPHEMERIS_TYPE": 0, "CLASSIFICATION_TYPE": "U", "NORAD_CAT_ID": 43603, "ELEMENT_SET_NO": 999, "REV_AT_EPOCH": 4957, "BSTAR": 0, "MEAN_MOTION_DOT": 6e-07, "MEAN_MOTION_DDOT": 0}, "tle": {"line1": "1 43603U 18067B   25341.34932416  .00000060  00000+0  00000+0 0  9999", "line2": "2 43603  54.1802 187.5102 0005581  36.6822 323.4250  1.86227152 49576"}}, "geometry": {"type": "Point", "coordinates": [-178.59488788219832, -8.285713050893328]}}]}